{"slug":"winter-park-resort","name":"Winter Park Resort","lat":39.8867,"lon":-105.7625,"region":"mountains","county":"Grand","wfo":"GJT","elevation_ft":9100,"icao":"KGNB","updatedAt":"2026-07-20T19:13:45.142Z","current":null,"hourly":null,"daily":null,"alerts":[],"afd":null,"coagmet":null,"aviation":{"icao":"KGNB","distance_km":0,"raw_metar":"METAR KGNB 201855Z AUTO 12006KT CLR 31/06 A3036 RMK AO2 LTG DSNT NE T03060059 PWINO","temp_f":87,"wind_dir":120,"wind_kt":6,"gust_kt":null,"visibility":null,"cover":"CLR","flight_category":null,"altimeter":1028.2,"observed":1784573700,"raw_taf":null,"url":"https://aviationweather.gov/data/metar/?ids=KGNB&hours=0"},"purpleair":{"name":"Trademark I","distance_km":0.6,"pm25":0.5,"humidity":18,"temperature_f":93,"aqi_pm25":2,"url":"https://map.purpleair.com/"},"airnow":null,"links":{"nws_forecast":"https://forecast.weather.gov/MapClick.php?lat=39.8867&lon=-105.7625","pws":null,"purpleair_map":"https://map.purpleair.com/","airnow":"https://www.airnow.gov/","coagmet":"https://coagmet.colostate.edu/","aviation":"https://aviationweather.gov/data/metar/?ids=KGNB&hours=0","rainviewer":"https://www.rainviewer.com/map.html"}}