{"slug":"purgatory-resort","name":"Purgatory Resort","lat":37.6306,"lon":-107.8147,"region":"mountains","county":"La Plata","wfo":"GJT","elevation_ft":8793,"icao":"KDRO","updatedAt":"2026-07-20T19:13:45.142Z","current":null,"hourly":null,"daily":null,"alerts":[],"afd":null,"coagmet":null,"aviation":{"icao":"KDRO","distance_km":0,"raw_metar":"METAR KDRO 201853Z AUTO 10SM CLR 29/08 A3022 RMK AO2 SLP134 T02940083","temp_f":85,"wind_dir":null,"wind_kt":null,"gust_kt":null,"visibility":"10+","cover":"CLR","flight_category":"VFR","altimeter":1023.5,"observed":1784573580,"raw_taf":"TAF KDRO 201743Z 2018/2118 26005KT P6SM FEW090 FM201900 26007KT P6SM BKN250 FM210100 23008KT P6SM FEW100 SCT200 FM210400 05006KT P6SM FEW090 SCT150 FM211200 VRB02KT P6SM FEW250","url":"https://aviationweather.gov/data/metar/?ids=KDRO&hours=0"},"purpleair":{"name":"Purgatory Metro Dist. Community Center","distance_km":0.7,"pm25":5.7,"humidity":18,"temperature_f":95,"aqi_pm25":24,"url":"https://map.purpleair.com/"},"airnow":null,"links":{"nws_forecast":"https://forecast.weather.gov/MapClick.php?lat=37.6306&lon=-107.8147","pws":null,"purpleair_map":"https://map.purpleair.com/","airnow":"https://www.airnow.gov/","coagmet":"https://coagmet.colostate.edu/","aviation":"https://aviationweather.gov/data/metar/?ids=KDRO&hours=0","rainviewer":"https://www.rainviewer.com/map.html"}}