{"slug":"rocky-mountain-np","name":"Rocky Mountain National Park","lat":40.3428,"lon":-105.6836,"region":"mountains","county":"Larimer","wfo":"BOU","elevation_ft":8000,"icao":"KBJC","updatedAt":"2026-07-20T19:13:45.142Z","current":null,"hourly":null,"daily":null,"alerts":[],"afd":null,"coagmet":null,"aviation":{"icao":"KBJC","distance_km":0,"raw_metar":"METAR KBJC 201847Z 08009KT 10SM SCT120 36/06 A3013","temp_f":97,"wind_dir":80,"wind_kt":9,"gust_kt":null,"visibility":"10+","cover":"SCT","flight_category":"VFR","altimeter":1020.4,"observed":1784573220,"raw_taf":"TAF KBJC 201738Z 2018/2118 03007KT P6SM FEW100 SCT200 FM202000 07008KT P6SM SCT100 SCT200 FM210000 10009KT P6SM SCT100 BKN140 PROB30 2100/2104 VRB15G25KT -SHRA BKN080 FM210400 34007KT P6SM SCT100 BKN140 FM211200 36009KT P6SM SCT100 SCT140","url":"https://aviationweather.gov/data/metar/?ids=KBJC&hours=0"},"purpleair":{"name":"Alpine cir","distance_km":10.3,"pm25":2.7,"humidity":30,"temperature_f":82,"aqi_pm25":11,"url":"https://map.purpleair.com/"},"airnow":null,"links":{"nws_forecast":"https://forecast.weather.gov/MapClick.php?lat=40.3428&lon=-105.6836","pws":null,"purpleair_map":"https://map.purpleair.com/","airnow":"https://www.airnow.gov/","coagmet":"https://coagmet.colostate.edu/","aviation":"https://aviationweather.gov/data/metar/?ids=KBJC&hours=0","rainviewer":"https://www.rainviewer.com/map.html"}}