{"slug":"willow-creek-pass","name":"Willow Creek Pass","lat":40.3167,"lon":-106.5833,"region":"mountains","county":"Grand","wfo":"GJT","elevation_ft":9620,"icao":"KHDN","updatedAt":"2026-07-20T19:13:45.142Z","current":null,"hourly":null,"daily":null,"alerts":[],"afd":null,"coagmet":null,"aviation":{"icao":"KHDN","distance_km":0,"raw_metar":"METAR KHDN 201856Z AUTO 33007KT 10SM CLR 31/10 A3022 RMK AO2 LTG DSNT N SLP122 T03110100","temp_f":88,"wind_dir":330,"wind_kt":7,"gust_kt":null,"visibility":"10+","cover":"CLR","flight_category":"VFR","altimeter":1023.5,"observed":1784573760,"raw_taf":"TAF KHDN 201743Z 2018/2118 05007KT P6SM BKN250 FM210100 11011KT P6SM FEW090 SCT250 FM210300 11009KT P6SM FEW090 SCT150 FM211200 10010KT P6SM FEW250","url":"https://aviationweather.gov/data/metar/?ids=KHDN&hours=0"},"purpleair":{"name":"GCPH","distance_km":23.6,"pm25":5.6,"humidity":18,"temperature_f":94,"aqi_pm25":23,"url":"https://map.purpleair.com/"},"airnow":null,"links":{"nws_forecast":"https://forecast.weather.gov/MapClick.php?lat=40.3167&lon=-106.5833","pws":null,"purpleair_map":"https://map.purpleair.com/","airnow":"https://www.airnow.gov/","coagmet":"https://coagmet.colostate.edu/","aviation":"https://aviationweather.gov/data/metar/?ids=KHDN&hours=0","rainviewer":"https://www.rainviewer.com/map.html"}}