{"slug":"mount-of-the-holy-cross","name":"Mount of the Holy Cross","lat":39.4669,"lon":-106.4817,"region":"mountains","county":"Eagle","wfo":"GJT","elevation_ft":14005,"icao":"KEGE","updatedAt":"2026-07-20T19:13:45.142Z","current":null,"hourly":null,"daily":null,"alerts":[],"afd":null,"coagmet":null,"aviation":{"icao":"KEGE","distance_km":0,"raw_metar":"METAR KEGE 201856Z 30003KT 10SM CLR 33/08 A3019 RMK AO2 SLP112 T03280083","temp_f":91,"wind_dir":300,"wind_kt":3,"gust_kt":null,"visibility":"10+","cover":"CLR","flight_category":"VFR","altimeter":1022.4,"observed":1784573760,"raw_taf":"TAF KEGE 201743Z 2018/2118 08006KT P6SM BKN250 PROB30 2022/2024 4SM -TSRA OVC025CB FM210000 08008KT P6SM SCT100 BKN200 PROB30 2100/2102 4SM -TSRA BKN100CB FM210400 VRB03KT P6SM FEW090 FEW250","url":"https://aviationweather.gov/data/metar/?ids=KEGE&hours=0"},"purpleair":{"name":"Beaver Creek Spruce Saddle","distance_km":13.2,"pm25":20,"humidity":10,"temperature_f":106,"aqi_pm25":68,"url":"https://map.purpleair.com/"},"airnow":null,"links":{"nws_forecast":"https://forecast.weather.gov/MapClick.php?lat=39.4669&lon=-106.4817","pws":null,"purpleair_map":"https://map.purpleair.com/","airnow":"https://www.airnow.gov/","coagmet":"https://coagmet.colostate.edu/","aviation":"https://aviationweather.gov/data/metar/?ids=KEGE&hours=0","rainviewer":"https://www.rainviewer.com/map.html"}}