{"slug":"taylor-reservoir","name":"Taylor Reservoir","lat":38.8167,"lon":-106.5833,"region":"mountains","county":"Gunnison","wfo":"GJT","elevation_ft":9300,"icao":"KGUC","updatedAt":"2026-07-20T19:13:45.142Z","current":null,"hourly":null,"daily":null,"alerts":[],"afd":null,"coagmet":null,"aviation":{"icao":"KGUC","distance_km":0,"raw_metar":"METAR KGUC 201856Z AUTO 25006KT 10SM CLR 31/07 A3028 RMK AO2 SLP133 T03060072 $","temp_f":87,"wind_dir":250,"wind_kt":6,"gust_kt":null,"visibility":"10+","cover":"CLR","flight_category":"VFR","altimeter":1025.5,"observed":1784573760,"raw_taf":"TAF KGUC 201743Z 2018/2118 13005KT P6SM FEW080 FM202300 05008KT P6SM FEW110 SCT200 PROB30 2023/2101 VRB10G20KT 4SM -TSRA BKN110CB FM211100 01005KT P6SM FEW120 FEW250 FM211200 05007KT P6SM FEW250","url":"https://aviationweather.gov/data/metar/?ids=KGUC&hours=0"},"purpleair":null,"airnow":null,"links":{"nws_forecast":"https://forecast.weather.gov/MapClick.php?lat=38.8167&lon=-106.5833","pws":null,"purpleair_map":"https://map.purpleair.com/","airnow":"https://www.airnow.gov/","coagmet":"https://coagmet.colostate.edu/","aviation":"https://aviationweather.gov/data/metar/?ids=KGUC&hours=0","rainviewer":"https://www.rainviewer.com/map.html"}}