{"slug":"fairplay-south-park","name":"South Park (Fairplay area)","lat":39.2247,"lon":-106.0019,"region":"mountains","county":"Park","wfo":"PUB","elevation_ft":9954,"icao":"KAEJ","updatedAt":"2026-07-20T19:13:45.142Z","current":null,"hourly":null,"daily":null,"alerts":[],"afd":null,"coagmet":null,"aviation":{"icao":"KAEJ","distance_km":0,"raw_metar":"METAR KAEJ 201855Z AUTO 06011G15KT 030V140 10SM CLR 32/01 A3032 RMK AO2 T03170010","temp_f":89,"wind_dir":60,"wind_kt":11,"gust_kt":15,"visibility":"10+","cover":"CLR","flight_category":"VFR","altimeter":1026.8,"observed":1784573700,"raw_taf":null,"url":"https://aviationweather.gov/data/metar/?ids=KAEJ&hours=0"},"purpleair":{"name":"APCD Fairplay","distance_km":0.7,"pm25":0,"humidity":19,"temperature_f":87,"aqi_pm25":0,"url":"https://map.purpleair.com/"},"airnow":null,"links":{"nws_forecast":"https://forecast.weather.gov/MapClick.php?lat=39.2247&lon=-106.0019","pws":null,"purpleair_map":"https://map.purpleair.com/","airnow":"https://www.airnow.gov/","coagmet":"https://coagmet.colostate.edu/","aviation":"https://aviationweather.gov/data/metar/?ids=KAEJ&hours=0","rainviewer":"https://www.rainviewer.com/map.html"}}