{"slug":"raymer","name":"Raymer","lat":40.6083,"lon":-103.8356,"region":"eastern-plains","county":"Weld","wfo":"BOU","elevation_ft":4780,"icao":"KGXY","updatedAt":"2026-07-20T19:13:45.142Z","current":null,"hourly":null,"daily":null,"alerts":[],"afd":null,"coagmet":null,"aviation":{"icao":"KGXY","distance_km":0,"raw_metar":"METAR KGXY 201856Z AUTO 10006KT 5SM HZ CLR 37/09 A3006 RMK AO2 SLP113 T03720089 PNO $","temp_f":99,"wind_dir":100,"wind_kt":6,"gust_kt":null,"visibility":5,"cover":"CLR","flight_category":"MVFR","altimeter":1018,"observed":1784573760,"raw_taf":null,"url":"https://aviationweather.gov/data/metar/?ids=KGXY&hours=0"},"purpleair":null,"airnow":null,"links":{"nws_forecast":"https://forecast.weather.gov/MapClick.php?lat=40.6083&lon=-103.8356","pws":null,"purpleair_map":"https://map.purpleair.com/","airnow":"https://www.airnow.gov/","coagmet":"https://coagmet.colostate.edu/","aviation":"https://aviationweather.gov/data/metar/?ids=KGXY&hours=0","rainviewer":"https://www.rainviewer.com/map.html"}}