{"slug":"trinidad-lake-state-park","name":"Trinidad Lake State Park","lat":37.1333,"lon":-104.5833,"region":"eastern-plains","county":"Las Animas","wfo":"PUB","elevation_ft":6200,"icao":"KTAD","updatedAt":"2026-07-20T19:13:45.142Z","current":null,"hourly":null,"daily":null,"alerts":[],"afd":null,"coagmet":null,"aviation":{"icao":"KTAD","distance_km":0,"raw_metar":"METAR KTAD 201854Z AUTO VRB05KT 10SM CLR 33/06 A3013 RMK AO2 SLP100 T03330061","temp_f":92,"wind_dir":"VRB","wind_kt":5,"gust_kt":null,"visibility":"10+","cover":"CLR","flight_category":"VFR","altimeter":1020.4,"observed":1784573640,"raw_taf":null,"url":"https://aviationweather.gov/data/metar/?ids=KTAD&hours=0"},"purpleair":{"name":"APCD Trinidad","distance_km":9.5,"pm25":1.4,"humidity":11,"temperature_f":105,"aqi_pm25":6,"url":"https://map.purpleair.com/"},"airnow":null,"links":{"nws_forecast":"https://forecast.weather.gov/MapClick.php?lat=37.1333&lon=-104.5833","pws":null,"purpleair_map":"https://map.purpleair.com/","airnow":"https://www.airnow.gov/","coagmet":"https://coagmet.colostate.edu/","aviation":"https://aviationweather.gov/data/metar/?ids=KTAD&hours=0","rainviewer":"https://www.rainviewer.com/map.html"}}